NUSANTARA SATU          
1 44048U 19009A   26087.85887809 -.00000254  00000+0  00000+0 0  9995
2 44048   0.0308 135.3681 0002137 313.5835 192.5020  1.00270208 25962
